IRIDIUM 8 [+]
1 24792U 97020A   10126.49882793  .00000034  00000-0  52400-5 0   389
2 24792  86.3933 324.8070 0002286  82.9778 277.1691 14.34220282680725
